[{"OBJECT_NAME":"IRIDIUM 33 DEB","OBJECT_ID":"1997-051MQ","EPOCH":"2026-04-25T03:31:57.137376","MEAN_MOTION":14.79333353,"ECCENTRICITY":0.00178852,"INCLINATION":86.308,"RA_OF_ASC_NODE":252.8105,"ARG_OF_PERICENTER":91.7135,"MEAN_ANOMALY":30.4316,"EPHEMERIS_TYPE":0,"CLASSIFICATION_TYPE":"U","NORAD_CAT_ID":34870,"ELEMENT_SET_NO":999,"REV_AT_EPOCH":90881,"BSTAR":0.0013950485,"MEAN_MOTION_DOT":0.00010443,"MEAN_MOTION_DDOT":0},{"OBJECT_NAME":"IRIDIUM 33 DEB","OBJECT_ID":"1997-051MY","EPOCH":"2026-04-25T09:39:35.777088","MEAN_MOTION":14.67698551,"ECCENTRICITY":0.00275063,"INCLINATION":86.325,"RA_OF_ASC_NODE":266.6501,"ARG_OF_PERICENTER":118.8591,"MEAN_ANOMALY":270.9713,"EPHEMERIS_TYPE":0,"CLASSIFICATION_TYPE":"U","NORAD_CAT_ID":34896,"ELEMENT_SET_NO":999,"REV_AT_EPOCH":89579,"BSTAR":0.00083849184,"MEAN_MOTION_DOT":4.822e-5,"MEAN_MOTION_DDOT":0},{"OBJECT_NAME":"IRIDIUM 33 DEB","OBJECT_ID":"1997-051NF","EPOCH":"2026-04-25T13:01:35.535360","MEAN_MOTION":14.60739273,"ECCENTRICITY":0.00710349,"INCLINATION":86.1329,"RA_OF_ASC_NODE":305.8962,"ARG_OF_PERICENTER":199.5268,"MEAN_ANOMALY":215.5827,"EPHEMERIS_TYPE":0,"CLASSIFICATION_TYPE":"U","NORAD_CAT_ID":34926,"ELEMENT_SET_NO":999,"REV_AT_EPOCH":88406,"BSTAR":0.0032137545,"MEAN_MOTION_DOT":0.00016282,"MEAN_MOTION_DDOT":0},{"OBJECT_NAME":"IRIDIUM 33 DEB","OBJECT_ID":"1997-051NR","EPOCH":"2026-04-24T03:13:23.646144","MEAN_MOTION":14.42647676,"ECCENTRICITY":0.00221644,"INCLINATION":86.3736,"RA_OF_ASC_NODE":0.3855,"ARG_OF_PERICENTER":142.2714,"MEAN_ANOMALY":10.614,"EPHEMERIS_TYPE":0,"CLASSIFICATION_TYPE":"U","NORAD_CAT_ID":34985,"ELEMENT_SET_NO":999,"REV_AT_EPOCH":89083,"BSTAR":0.00033636037,"MEAN_MOTION_DOT":1.141e-5,"MEAN_MOTION_DDOT":0},{"OBJECT_NAME":"IRIDIUM 33 DEB","OBJECT_ID":"1997-051NX","EPOCH":"2026-04-25T06:17:08.700000","MEAN_MOTION":14.48283155,"ECCENTRICITY":0.0008778,"INCLINATION":86.3204,"RA_OF_ASC_NODE":310.6495,"ARG_OF_PERICENTER":19.2719,"MEAN_ANOMALY":340.8815,"EPHEMERIS_TYPE":0,"CLASSIFICATION_TYPE":"U","NORAD_CAT_ID":35051,"ELEMENT_SET_NO":999,"REV_AT_EPOCH":88928,"BSTAR":0.00043285,"MEAN_MOTION_DOT":1.637e-5,"MEAN_MOTION_DDOT":0},{"OBJECT_NAME":"IRIDIUM 33 DEB","OBJECT_ID":"1997-051NY","EPOCH":"2026-04-25T19:48:14.020128","MEAN_MOTION":14.38676714,"ECCENTRICITY":0.00118482,"INCLINATION":86.3291,"RA_OF_ASC_NODE":323.0133,"ARG_OF_PERICENTER":13.9902,"MEAN_ANOMALY":346.1622,"EPHEMERIS_TYPE":0,"CLASSIFICATION_TYPE":"U","NORAD_CAT_ID":35052,"ELEMENT_SET_NO":999,"REV_AT_EPOCH":89203,"BSTAR":0.00012929388,"MEAN_MOTION_DOT":4.16e-6,"MEAN_MOTION_DDOT":0},{"OBJECT_NAME":"IRIDIUM 33 DEB","OBJECT_ID":"1997-051PF","EPOCH":"2026-04-25T02:44:39.630048","MEAN_MOTION":15.13695069,"ECCENTRICITY":0.00367102,"INCLINATION":86.2165,"RA_OF_ASC_NODE":347.3521,"ARG_OF_PERICENTER":53.3363,"MEAN_ANOMALY":307.1242,"EPHEMERIS_TYPE":0,"CLASSIFICATION_TYPE":"U","NORAD_CAT_ID":35080,"ELEMENT_SET_NO":999,"REV_AT_EPOCH":71686,"BSTAR":0.0048185359,"MEAN_MOTION_DOT":0.00089084,"MEAN_MOTION_DDOT":0},{"OBJECT_NAME":"IRIDIUM 33 DEB","OBJECT_ID":"1997-051PM","EPOCH":"2026-04-22T10:25:52.856256","MEAN_MOTION":14.4579135,"ECCENTRICITY":0.00180779,"INCLINATION":86.3902,"RA_OF_ASC_NODE":6.9576,"ARG_OF_PERICENTER":71.6022,"MEAN_ANOMALY":288.7144,"EPHEMERIS_TYPE":0,"CLASSIFICATION_TYPE":"U","NORAD_CAT_ID":35297,"ELEMENT_SET_NO":999,"REV_AT_EPOCH":72314,"BSTAR":0.00035081942,"MEAN_MOTION_DOT":1.266e-5,"MEAN_MOTION_DDOT":0},{"OBJECT_NAME":"IRIDIUM 33 DEB","OBJECT_ID":"1997-051PP","EPOCH":"2026-04-25T14:16:36.823296","MEAN_MOTION":14.42037171,"ECCENTRICITY":0.00567863,"INCLINATION":86.2885,"RA_OF_ASC_NODE":334.8764,"ARG_OF_PERICENTER":22.4242,"MEAN_ANOMALY":6.653,"EPHEMERIS_TYPE":0,"CLASSIFICATION_TYPE":"U","NORAD_CAT_ID":35299,"ELEMENT_SET_NO":999,"REV_AT_EPOCH":88259,"BSTAR":0.00095277424,"MEAN_MOTION_DOT":3.207e-5,"MEAN_MOTION_DDOT":0},{"OBJECT_NAME":"IRIDIUM 33 DEB","OBJECT_ID":"1997-051QA","EPOCH":"2026-04-21T07:40:22.167264","MEAN_MOTION":14.50464382,"ECCENTRICITY":0.00150645,"INCLINATION":86.3557,"RA_OF_ASC_NODE":328.7276,"ARG_OF_PERICENTER":38.7265,"MEAN_ANOMALY":321.5017,"EPHEMERIS_TYPE":0,"CLASSIFICATION_TYPE":"U","NORAD_CAT_ID":35480,"ELEMENT_SET_NO":999,"REV_AT_EPOCH":88909,"BSTAR":0.00033582464,"MEAN_MOTION_DOT":1.335e-5,"MEAN_MOTION_DDOT":0},{"OBJECT_NAME":"IRIDIUM 33 DEB","OBJECT_ID":"1997-051QE","EPOCH":"2026-04-21T05:15:32.840640","MEAN_MOTION":15.1109185,"ECCENTRICITY":0.00125069,"INCLINATION":86.3479,"RA_OF_ASC_NODE":291.4792,"ARG_OF_PERICENTER":20.2959,"MEAN_ANOMALY":339.8774,"EPHEMERIS_TYPE":0,"CLASSIFICATION_TYPE":"U","NORAD_CAT_ID":35484,"ELEMENT_SET_NO":999,"REV_AT_EPOCH":63963,"BSTAR":0.0025426292,"MEAN_MOTION_DOT":0.00042851,"MEAN_MOTION_DDOT":0},{"OBJECT_NAME":"IRIDIUM 33 DEB","OBJECT_ID":"1997-051QJ","EPOCH":"2026-04-25T19:01:33.886848","MEAN_MOTION":14.86252651,"ECCENTRICITY":0.00231399,"INCLINATION":86.3243,"RA_OF_ASC_NODE":238.8851,"ARG_OF_PERICENTER":283.1662,"MEAN_ANOMALY":76.698,"EPHEMERIS_TYPE":0,"CLASSIFICATION_TYPE":"U","NORAD_CAT_ID":35488,"ELEMENT_SET_NO":999,"REV_AT_EPOCH":90255,"BSTAR":0.0011734394,"MEAN_MOTION_DOT":0.00010395,"MEAN_MOTION_DDOT":0},{"OBJECT_NAME":"IRIDIUM 33 DEB","OBJECT_ID":"1997-051QN","EPOCH":"2026-04-21T04:29:46.259808","MEAN_MOTION":14.85791192,"ECCENTRICITY":0.00106465,"INCLINATION":86.3497,"RA_OF_ASC_NODE":286.468,"ARG_OF_PERICENTER":87.8457,"MEAN_ANOMALY":272.3986,"EPHEMERIS_TYPE":0,"CLASSIFICATION_TYPE":"U","NORAD_CAT_ID":35616,"ELEMENT_SET_NO":999,"REV_AT_EPOCH":89494,"BSTAR":0.0012410303,"MEAN_MOTION_DOT":0.00010829,"MEAN_MOTION_DDOT":0},{"OBJECT_NAME":"IRIDIUM 33 DEB","OBJECT_ID":"1997-051QQ","EPOCH":"2026-04-24T05:29:15.509472","MEAN_MOTION":14.52870281,"ECCENTRICITY":0.00262809,"INCLINATION":86.3344,"RA_OF_ASC_NODE":295.5416,"ARG_OF_PERICENTER":294.7776,"MEAN_ANOMALY":65.0696,"EPHEMERIS_TYPE":0,"CLASSIFICATION_TYPE":"U","NORAD_CAT_ID":35618,"ELEMENT_SET_NO":999,"REV_AT_EPOCH":67317,"BSTAR":0.00028754827,"MEAN_MOTION_DOT":1.209e-5,"MEAN_MOTION_DDOT":0},{"OBJECT_NAME":"IRIDIUM 33 DEB","OBJECT_ID":"1997-051QS","EPOCH":"2026-04-25T09:21:53.731872","MEAN_MOTION":14.41324748,"ECCENTRICITY":0.013697,"INCLINATION":86.3908,"RA_OF_ASC_NODE":160.9559,"ARG_OF_PERICENTER":176.1348,"MEAN_ANOMALY":184.0946,"EPHEMERIS_TYPE":0,"CLASSIFICATION_TYPE":"U","NORAD_CAT_ID":35620,"ELEMENT_SET_NO":999,"REV_AT_EPOCH":61889,"BSTAR":0.0017364767,"MEAN_MOTION_DOT":6.305e-5,"MEAN_MOTION_DDOT":0},{"OBJECT_NAME":"IRIDIUM 33 DEB","OBJECT_ID":"1997-051QU","EPOCH":"2026-04-25T00:02:53.712384","MEAN_MOTION":15.18380153,"ECCENTRICITY":0.00100096,"INCLINATION":86.1915,"RA_OF_ASC_NODE":197.093,"ARG_OF_PERICENTER":141.9066,"MEAN_ANOMALY":33.5919,"EPHEMERIS_TYPE":0,"CLASSIFICATION_TYPE":"U","NORAD_CAT_ID":35622,"ELEMENT_SET_NO":999,"REV_AT_EPOCH":89373,"BSTAR":0.0020983583,"MEAN_MOTION_DOT":0.00043391,"MEAN_MOTION_DDOT":0}]
