IRIDIUM 33 DEB          
1 34870U 97051MQ  26115.14718909  .00010443  00000+0  13950-2 0  9999
2 34870  86.3080 252.8105 0017885  91.7135  30.4316 14.79333353908811
IRIDIUM 33 DEB          
1 34896U 97051MY  26115.40249742  .00004822  00000+0  83849-3 0  9999
2 34896  86.3250 266.6501 0027506 118.8591 270.9713 14.67698551895794
IRIDIUM 33 DEB          
1 34926U 97051NF  26115.54277240  .00016282  00000+0  32138-2 0  9999
2 34926  86.1329 305.8962 0071035 199.5268 215.5827 14.60739273884062
IRIDIUM 33 DEB          
1 34985U 97051NR  26114.13430146  .00001141  00000+0  33636-3 0  9997
2 34985  86.3736   0.3855 0022164 142.2714  10.6140 14.42647676890838
IRIDIUM 33 DEB          
1 35051U 97051NX  26115.26190625  .00001637  00000+0  43285-3 0  9993
2 35051  86.3204 310.6495 0008778  19.2719 340.8815 14.48283155889281
IRIDIUM 33 DEB          
1 35052U 97051NY  26115.82516227  .00000416  00000+0  12929-3 0  9991
2 35052  86.3291 323.0133 0011848  13.9902 346.1622 14.38676714892030
IRIDIUM 33 DEB          
1 35080U 97051PF  26115.11434757  .00089084  00000+0  48185-2 0  9991
2 35080  86.2165 347.3521 0036710  53.3363 307.1242 15.13695069716863
IRIDIUM 33 DEB          
1 35297U 97051PM  26112.43463954  .00001266  00000+0  35082-3 0  9993
2 35297  86.3902   6.9576 0018077  71.6022 288.7144 14.45791350723140
IRIDIUM 33 DEB          
1 35299U 97051PP  26115.59487064  .00003207  00000+0  95277-3 0  9992
2 35299  86.2885 334.8764 0056786  22.4242   6.6530 14.42037171882592
IRIDIUM 33 DEB          
1 35480U 97051QA  26111.31970101  .00001335  00000+0  33582-3 0  9990
2 35480  86.3557 328.7276 0015064  38.7265 321.5017 14.50464382889098
IRIDIUM 33 DEB          
1 35484U 97051QE  26111.21913010  .00042851  00000+0  25426-2 0  9994
2 35484  86.3479 291.4792 0012506  20.2959 339.8774 15.11091850639637
IRIDIUM 33 DEB          
1 35488U 97051QJ  26115.79275331  .00010395  00000+0  11734-2 0  9997
2 35488  86.3243 238.8851 0023140 283.1662  76.6980 14.86252651902556
IRIDIUM 33 DEB          
1 35616U 97051QN  26111.18734097  .00010829  00000+0  12410-2 0  9992
2 35616  86.3497 286.4680 0010646  87.8457 272.3986 14.85791192894948
IRIDIUM 33 DEB          
1 35618U 97051QQ  26114.22865173  .00001209  00000+0  28755-3 0  9994
2 35618  86.3344 295.5416 0026280 294.7776  65.0696 14.52870281673179
IRIDIUM 33 DEB          
1 35620U 97051QS  26115.39020522  .00006305  00000+0  17365-2 0  9993
2 35620  86.3908 160.9559 0136970 176.1348 184.0946 14.41324748618895
IRIDIUM 33 DEB          
1 35622U 97051QU  26115.00201056  .00043391  00000+0  20984-2 0  9993
2 35622  86.1915 197.0930 0010009 141.9066  33.5919 15.18380153893731
